start=new Date('2022-03-19T00:00:00.000Z').valueOf();
sats=[{"MEAN_MOTION_DDOT":"0.0000000000000","MEAN_ANOMALY":"314.1126","TLE_LINE1":"1 45710U 20035BF  22077.43291193  .00006103  00000-0  42827-3 0  9993","DECAY_DATE":null,"APOAPSIS":"548.544","REF_FRAME":"TEME","TIME_SYSTEM":"UTC","LAUNCH_DATE":"2020-06-04","EPOCH":"2022-03-18T10:23:23.590752","ECCENTRICITY":"0.00019040","EPHEMERIS_TYPE":"0","MEAN_MOTION_DOT":"0.00006103","CENTER_NAME":"EARTH","OBJECT_TYPE":"PAYLOAD","GP_ID":"199042713","FILE":"3364342","REV_AT_EPOCH":"10026","MEAN_ELEMENT_THEORY":"SGP4","SEMIMAJOR_AXIS":"6925.360","PERIOD":"95.592","MEAN_MOTION":"15.06396253","PERIAPSIS":"545.906","OBJECT_ID":"2020-035BF","INCLINATION":"53.0542","TLE_LINE2":"2 45710  53.0542  76.0474 0001904  46.0019 314.1126 15.06396253100267","RCS_SIZE":"LARGE","ELEMENT_SET_NO":"999","NORAD_CAT_ID":"45710","ARG_OF_PERICENTER":"46.0019","CLASSIFICATION_TYPE":"U","RA_OF_ASC_NODE":"76.0474","OBJECT_NAME":"STARLINK-1423","COUNTRY_CODE":"US","BSTAR":"0.00042827000000","SITE":"AFETR"},{"LAUNCH_DATE":"2020-06-04","EPOCH":"2022-03-18T22:41:08.397312","ECCENTRICITY":"0.00019040","EPHEMERIS_TYPE":"0","APOAPSIS":"548.511","REF_FRAME":"TEME","TIME_SYSTEM":"UTC","CENTER_NAME":"EARTH","MEAN_MOTION_DOT":"0.00002460","MEAN_MOTION_DDOT":"0.0000000000000","TLE_LINE1":"1 45711U 20035BG  22077.94523608  .00002460  00000-0  18399-3 0  9998","MEAN_ANOMALY":"307.3454","DECAY_DATE":null,"ELEMENT_SET_NO":"999","NORAD_CAT_ID":"45711","RCS_SIZE":"LARGE","BSTAR":"0.00018399000000","SITE":"AFETR","ARG_OF_PERICENTER":"52.7708","CLASSIFICATION_TYPE":"U","RA_OF_ASC_NODE":"73.7530","OBJECT_NAME":"STARLINK-1433","COUNTRY_CODE":"US","SEMIMAJOR_AXIS":"6925.328","OBJECT_TYPE":"PAYLOAD","FILE":"3364757","GP_ID":"199101700","REV_AT_EPOCH":"10033","MEAN_ELEMENT_THEORY":"SGP4","MEAN_MOTION":"15.06406835","PERIAPSIS":"545.874","OBJECT_ID":"2020-035BG","INCLINATION":"53.0545","TLE_LINE2":"2 45711  53.0545  73.7530 0001904  52.7708 307.3454 15.06406835100331","PERIOD":"95.592"},{"CENTER_NAME":"EARTH","MEAN_MOTION_DOT":"0.00005039","EPHEMERIS_TYPE":"0","EPOCH":"2022-03-18T09:51:31.866336","ECCENTRICITY":"0.00014910","LAUNCH_DATE":"2020-06-04","TIME_SYSTEM":"UTC","APOAPSIS":"548.292","REF_FRAME":"TEME","DECAY_DATE":null,"TLE_LINE1":"1 45712U 20035BH  22077.41078549  .00005039  00000-0  35710-3 0  9991","MEAN_ANOMALY":"300.4520","MEAN_MOTION_DDOT":"0.0000000000000","SITE":"AFETR","BSTAR":"0.00035710000000","COUNTRY_CODE":"US","CLASSIFICATION_TYPE":"U","RA_OF_ASC_NODE":"76.1584","OBJECT_NAME":"STARLINK-1434","ARG_OF_PERICENTER":"59.6616","ELEMENT_SET_NO":"999","NORAD_CAT_ID":"45712","RCS_SIZE":"LARGE","TLE_LINE2":"2 45712  53.0550  76.1584 0001491  59.6616 300.4520 15.06385006100265","OBJECT_ID":"2020-035BH","PERIAPSIS":"546.227","INCLINATION":"53.0550","MEAN_MOTION":"15.06385006","PERIOD":"95.593","SEMIMAJOR_AXIS":"6925.395","MEAN_ELEMENT_THEORY":"SGP4","REV_AT_EPOCH":"10026","GP_ID":"199041713","FILE":"3364342","OBJECT_TYPE":"PAYLOAD"},{"PERIOD":"95.593","TLE_LINE2":"2 45713  53.0536  96.0573 0001717  54.2377 305.8771 15.06381616 99970","INCLINATION":"53.0536","PERIAPSIS":"546.081","OBJECT_ID":"2020-035BJ","MEAN_MOTION":"15.06381616","MEAN_ELEMENT_THEORY":"SGP4","REV_AT_EPOCH":"9997","FILE":"3364342","GP_ID":"199042462","OBJECT_TYPE":"PAYLOAD","SEMIMAJOR_AXIS":"6925.405","COUNTRY_CODE":"US","OBJECT_NAME":"STARLINK-1436","CLASSIFICATION_TYPE":"U","RA_OF_ASC_NODE":"96.0573","ARG_OF_PERICENTER":"54.2377","SITE":"AFETR","BSTAR":"0.00016980000000","RCS_SIZE":"LARGE","NORAD_CAT_ID":"45713","ELEMENT_SET_NO":"999","DECAY_DATE":null,"MEAN_ANOMALY":"305.8771","TLE_LINE1":"1 45713U 20035BJ  22077.43107346  .00002247  00000-0  16980-3 0  9998","MEAN_MOTION_DDOT":"0.0000000000000","MEAN_MOTION_DOT":"0.00002247","CENTER_NAME":"EARTH","TIME_SYSTEM":"UTC","APOAPSIS":"548.459","REF_FRAME":"TEME","EPHEMERIS_TYPE":"0","ECCENTRICITY":"0.00017170","EPOCH":"2022-03-18T10:20:44.746944","LAUNCH_DATE":"2020-06-04"},{"TLE_LINE1":"1 45714U 20035BK  22077.42185612  .00002988  00000-0  21954-3 0  9999","MEAN_ANOMALY":"304.5351","MEAN_MOTION_DDOT":"0.0000000000000","DECAY_DATE":null,"EPOCH":"2022-03-18T10:07:28.368768","ECCENTRICITY":"0.00016700","EPHEMERIS_TYPE":"0","LAUNCH_DATE":"2020-06-04","TIME_SYSTEM":"UTC","APOAPSIS":"548.432","REF_FRAME":"TEME","CENTER_NAME":"EARTH","MEAN_MOTION_DOT":"0.00002988","SEMIMAJOR_AXIS":"6925.410","REV_AT_EPOCH":"10026","MEAN_ELEMENT_THEORY":"SGP4","OBJECT_TYPE":"PAYLOAD","FILE":"3364342","GP_ID":"199043213","PERIAPSIS":"546.119","INCLINATION":"53.0546","OBJECT_ID":"2020-035BK","TLE_LINE2":"2 45714  53.0546  76.1049 0001670  55.5795 304.5351 15.06379902100265","MEAN_MOTION":"15.06379902","PERIOD":"95.593","ELEMENT_SET_NO":"999","NORAD_CAT_ID":"45714","RCS_SIZE":"LARGE","SITE":"AFETR","BSTAR":"0.00021954000000","COUNTRY_CODE":"US","ARG_OF_PERICENTER":"55.5795","RA_OF_ASC_NODE":"76.1049","CLASSIFICATION_TYPE":"U","OBJECT_NAME":"STARLINK-1437"},{"REV_AT_EPOCH":"9737","MEAN_ELEMENT_THEORY":"SGP4","OBJECT_TYPE":"PAYLOAD","FILE":"3364757","GP_ID":"199101701","SEMIMAJOR_AXIS":"6925.353","PERIOD":"95.592","PERIAPSIS":"546.281","OBJECT_ID":"2020-038A","INCLINATION":"53.0552","TLE_LINE2":"2 45730  53.0552 274.2605 0001353  52.8235 307.2877 15.06398510 97372","MEAN_MOTION":"15.06398510","RCS_SIZE":"LARGE","NORAD_CAT_ID":"45730","ELEMENT_SET_NO":"999","COUNTRY_CODE":"US","ARG_OF_PERICENTER":"52.8235","CLASSIFICATION_TYPE":"U","RA_OF_ASC_NODE":"274.2605","OBJECT_NAME":"STARLINK-1461","SITE":"AFETR","BSTAR":"0.00015646000000","TLE_LINE1":"1 45730U 20038A   22077.83097486  .00002050  00000-0  15646-3 0  9997","MEAN_ANOMALY":"307.2877","MEAN_MOTION_DDOT":"0.0000000000000","DECAY_DATE":null,"TIME_SYSTEM":"UTC","REF_FRAME":"TEME","APOAPSIS":"548.155","EPOCH":"2022-03-18T19:56:36.227904","ECCENTRICITY":"0.00013530","EPHEMERIS_TYPE":"0","LAUNCH_DATE":"2020-06-13","MEAN_MOTION_DOT":"0.00002050","CENTER_NAME":"EARTH"},{"COUNTRY_CODE":"US","ARG_OF_PERICENTER":"75.6527","OBJECT_NAME":"STARLINK-1465","CLASSIFICATION_TYPE":"U","RA_OF_ASC_NODE":"274.2022","SITE":"AFETR","BSTAR":"0.00043936000000","RCS_SIZE":"LARGE","ELEMENT_SET_NO":"999","NORAD_CAT_ID":"45731","PERIOD":"95.592","OBJECT_ID":"2020-038B","PERIAPSIS":"546.238","INCLINATION":"53.0528","TLE_LINE2":"2 45731  53.0528 274.2022 0001369  75.6527 284.4613 15.06408876 97363","MEAN_MOTION":"15.06408876","REV_AT_EPOCH":"9736","MEAN_ELEMENT_THEORY":"SGP4","OBJECT_TYPE":"PAYLOAD","GP_ID":"199102439","FILE":"3364757","SEMIMAJOR_AXIS":"6925.321","MEAN_MOTION_DOT":"0.00006270","CENTER_NAME":"EARTH","TIME_SYSTEM":"UTC","APOAPSIS":"548.134","REF_FRAME":"TEME","ECCENTRICITY":"0.00013690","EPOCH":"2022-03-18T20:17:51.269856","EPHEMERIS_TYPE":"0","LAUNCH_DATE":"2020-06-13","DECAY_DATE":null,"TLE_LINE1":"1 45731U 20038B   22077.84573229  .00006270  00000-0  43936-3 0  9994","MEAN_ANOMALY":"284.4613","MEAN_MOTION_DDOT":"0.0000000000000"},{"CENTER_NAME":"EARTH","MEAN_MOTION_DOT":"0.00006269","LAUNCH_DATE":"2020-06-13","ECCENTRICITY":"0.00016540","EPOCH":"2022-03-18T20:01:56.955936","EPHEMERIS_TYPE":"0","REF_FRAME":"TEME","APOAPSIS":"548.365","TIME_SYSTEM":"UTC","DECAY_DATE":null,"MEAN_MOTION_DDOT":"0.0000000000000","MEAN_ANOMALY":"301.8142","TLE_LINE1":"1 45732U 20038C   22077.83468699  .00006269  00000-0  43943-3 0  9994","BSTAR":"0.00043943000000","SITE":"AFETR","ARG_OF_PERICENTER":"58.3008","CLASSIFICATION_TYPE":"U","OBJECT_NAME":"STARLINK-1466","RA_OF_ASC_NODE":"274.2451","COUNTRY_CODE":"US","ELEMENT_SET_NO":"999","NORAD_CAT_ID":"45732","RCS_SIZE":"LARGE","MEAN_MOTION":"15.06397956","PERIAPSIS":"546.074","INCLINATION":"53.0531","OBJECT_ID":"2020-038C","TLE_LINE2":"2 45732  53.0531 274.2451 0001654  58.3008 301.8142 15.06397956 97360","PERIOD":"95.592","SEMIMAJOR_AXIS":"6925.355","OBJECT_TYPE":"PAYLOAD","FILE":"3364757","GP_ID":"199100701","MEAN_ELEMENT_THEORY":"SGP4","REV_AT_EPOCH":"9736"},{"SITE":"AFETR","BSTAR":"0.00017314000000","COUNTRY_CODE":"US","CLASSIFICATION_TYPE":"U","OBJECT_NAME":"STARLINK-1467","RA_OF_ASC_NODE":"274.5248","ARG_OF_PERICENTER":"64.3051","ELEMENT_SET_NO":"999","NORAD_CAT_ID":"45733","RCS_SIZE":"LARGE","TLE_LINE2":"2 45733  53.0518 274.5248 0001555  64.3051 295.8098 15.06409034 97350","PERIAPSIS":"546.109","OBJECT_ID":"2020-038D","INCLINATION":"53.0518","MEAN_MOTION":"15.06409034","PERIOD":"95.592","SEMIMAJOR_AXIS":"6925.321","MEAN_ELEMENT_THEORY":"SGP4","REV_AT_EPOCH":"9735","FILE":"3364757","GP_ID":"199100951","OBJECT_TYPE":"PAYLOAD","CENTER_NAME":"EARTH","MEAN_MOTION_DOT":"0.00002299","EPHEMERIS_TYPE":"0","ECCENTRICITY":"0.00015550","EPOCH":"2022-03-18T18:36:59.420736","LAUNCH_DATE":"2020-06-13","TIME_SYSTEM":"UTC","APOAPSIS":"548.263","REF_FRAME":"TEME","DECAY_DATE":null,"MEAN_ANOMALY":"295.8098","TLE_LINE1":"1 45733U 20038D   22077.77568774  .00002299  00000-0  17314-3 0  9995","MEAN_MOTION_DDOT":"0.0000000000000"},{"MEAN_MOTION_DOT":"0.00005075","CENTER_NAME":"EARTH","REF_FRAME":"TEME","APOAPSIS":"548.446","TIME_SYSTEM":"UTC","LAUNCH_DATE":"2020-06-13","EPHEMERIS_TYPE":"0","EPOCH":"2022-03-18T21:21:31.654080","ECCENTRICITY":"0.00017830","DECAY_DATE":null,"MEAN_MOTION_DDOT":"0.0000000000000","TLE_LINE1":"1 45734U 20038E   22077.88994970  .00005075  00000-0  35934-3 0  9992","MEAN_ANOMALY":"301.9482","CLASSIFICATION_TYPE":"U","OBJECT_NAME":"STARLINK-1468","RA_OF_ASC_NODE":"274.0012","ARG_OF_PERICENTER":"58.1680","COUNTRY_CODE":"US","BSTAR":"0.00035934000000","SITE":"AFETR","RCS_SIZE":"LARGE","ELEMENT_SET_NO":"999","NORAD_CAT_ID":"45734","PERIOD":"95.592","MEAN_MOTION":"15.06400797","TLE_LINE2":"2 45734  53.0563 274.0012 0001783  58.1680 301.9482 15.06400797 97372","INCLINATION":"53.0563","PERIAPSIS":"545.976","OBJECT_ID":"2020-038E","FILE":"3364757","GP_ID":"199102201","OBJECT_TYPE":"PAYLOAD","REV_AT_EPOCH":"9737","MEAN_ELEMENT_THEORY":"SGP4","SEMIMAJOR_AXIS":"6925.346"}];
